$$SOE
2460721.500000000, A.D. 2025-Feb-15 00:00:00.0000, 3.287141020143911E+07, -4.365135308763638E+08, -2.281928438065350E+07,
2460728.500000000, A.D. 2025-Feb-22 00:00:00.0000, 4.302901050047349E+07, -4.355605545975627E+08, -2.336791053124192E+07,
2460735.500000000, A.D. 2025-Mar-01 00:00:00.0000, 5.316180655290267E+07, -4.343565371145065E+08, -2.390306445348155E+07,
2460742.500000000, A.D. 2025-Mar-08 00:00:00.0000, 6.326394836426225E+07, -4.329020794304585E+08, -2.442443282650414E+07,
2460749.500000000, A.D. 2025-Mar-15 00:00:00.0000, 7.332959674660598E+07, -4.311979011308317E+08, -2.493170865587902E+07,
2460756.500000000, A.D. 2025-Mar-22 00:00:00.0000, 8.335292275603540E+07, -4.292448400035072E+08, -2.542459112920982E+07,
2460763.500000000, A.D. 2025-Mar-29 00:00:00.0000, 9.332810851349579E+07, -4.270438539293416E+08, -2.590278578208959E+07,
2460770.500000000, A.D. 2025-Apr-05 00:00:00.0000, 1.032493497374730E+08, -4.245960219045867E+08, -2.636600474825844E+07,
2460777.500000000, A.D. 2025-Apr-12 00:00:00.0000, 1.131108580653457E+08, -4.219025440911711E+08, -2.681396690925196E+07,
2460784.500000000, A.D. 2025-Apr-19 00:00:00.0000, 1.229068629787528E+08, -4.189647417753537E+08, -2.724639799879381E+07,
2460791.500000000, A.D. 2025-Apr-26 00:00:00.0000, 1.326316136072185E+08, -4.157840574366537E+08, -2.766303070382312E+07,
2460798.500000000, A.D. 2025-May-03 00:00:00.0000, 1.422793805261684E+08, -4.123620549065721E+08, -2.806360477135849E+07,
2460805.500000000, A.D. 2025-May-10 00:00:00.0000, 1.518444575802744E+08, -4.087004196068006E+08, -2.844786712341750E+07,
2460812.500000000, A.D. 2025-May-17 00:00:00.0000, 1.613211637713179E+08, -4.048009589061356E+08, -2.881557198697722E+07,
2460819.500000000, A.D. 2025-May-24 00:00:00.0000, 1.707038453869188E+08, -4.006656026490535E+08, -2.916648105955982E+07,
2460826.500000000, A.D. 2025-May-31 00:00:00.0000, 1.799868787896768E+08, -3.962964035436314E+08, -2.950036372337103E+07,
2460833.500000000, A.D. 2025-Jun-07 00:00:00.0000, 1.891646734666927E+08, -3.916955362017944E+08, -2.981699717260149E+07,
2460840.500000000, A.D. 2025-Jun-14 00:00:00.0000, 1.982316729757415E+08, -3.868652954943687E+08, -3.011616629128021E+07,
2460847.500000000, A.D. 2025-Jun-21 00:00:00.0000, 2.071823550073885E+08, -3.818080974864793E+08, -3.039766366054395E+07,
2460854.500000000, A.D. 2025-Jun-28 00:00:00.0000, 2.160112336961835E+08, -3.765264811850403E+08, -3.066128983826633E+07,
2460861.500000000, A.D. 2025-Jul-05 00:00:00.0000, 2.247128626690807E+08, -3.710231089417830E+08, -3.090685359606780E+07,
2460868.500000000, A.D. 2025-Jul-12 00:00:00.0000, 2.332818376429164E+08, -3.653007663177036E+08, -3.113417207050368E+07,
2460875.500000000, A.D. 2025-Jul-19 00:00:00.0000, 2.417127987616844E+08, -3.593623619832488E+08, -3.134307089278325E+07,
2460882.500000000, A.D. 2025-Jul-26 00:00:00.0000, 2.500004328839599E+08, -3.532109277084533E+08, -3.153338432063612E+07,
2460889.500000000, A.D. 2025-Aug-02 00:00:00.0000, 2.581394758861333E+08, -3.468496184176194E+08, -3.170495537613583E+07,
2460896.500000000, A.D. 2025-Aug-09 00:00:00.0000, 2.661247150053487E+08, -3.402817123182285E+08, -3.185763599234253E+07,
2460903.500000000, A.D. 2025-Aug-16 00:00:00.0000, 2.739509913003255E+08, -3.335106111615063E+08, -3.199128718053916E+07,
2460910.500000000, A.D. 2025-Aug-23 00:00:00.0000, 2.816132025253780E+08, -3.265398406126507E+08, -3.210577924322878E+07,
2460917.500000000, A.D. 2025-Aug-30 00:00:00.0000, 2.891063067503747E+08, -3.193730500130817E+08, -3.220099200453028E+07,
2460924.500000000, A.D. 2025-Sep-06 00:00:00.0000, 2.964253253115416E+08, -3.120140105326935E+08, -3.227681484603687E+07,
2460931.500000000, A.D. 2025-Sep-13 00:00:00.0000, 3.035653434230396E+08, -3.044666141923066E+08, -3.233314659759460E+07,
2460938.500000000, A.D. 2025-Sep-20 00:00:00.0000, 3.105215117224981E+08, -2.967348753957430E+08, -3.236989571729870E+07,
2460945.500000000, A.D. 2025-Sep-27 00:00:00.0000, 3.172890498102804E+08, -2.888229318550575E+08, -3.238698060321832E+07,
2460952.500000000, A.D. 2025-Oct-04 00:00:00.0000, 3.238632497672108E+08, -2.807350443658462E+08, -3.238432980753654E+07,
2460959.500000000, A.D. 2025-Oct-11 00:00:00.0000, 3.302394792777813E+08, -2.724755963714395E+08, -3.236188219561023E+07,
2460966.500000000, A.D. 2025-Oct-18 00:00:00.0000, 3.364131846428355E+08, -2.640490935855537E+08, -3.231958709812403E+07,
2460973.500000000, A.D. 2025-Oct-25 00:00:00.0000, 3.423798938214898E+08, -2.554601636572221E+08, -3.225740446801855E+07,
2460980.500000000, A.D. 2025-Nov-01 00:00:00.0000, 3.481352195417374E+08, -2.467135558572471E+08, -3.217530504438591E+07,
2460987.500000000, A.D. 2025-Nov-08 00:00:00.0000, 3.536748625136514E+08, -2.378141408121114E+08, -3.207327052894534E+07,
2460994.500000000, A.D. 2025-Nov-15 00:00:00.0000, 3.589946148916157E+08, -2.287669103376127E+08, -3.195129379332137E+07,
2461001.500000000, A.D. 2025-Nov-22 00:00:00.0000, 3.640903643872377E+08, -2.195769771448209E+08, -3.180937913592693E+07,
2461008.500000000, A.D. 2025-Nov-29 00:00:00.0000, 3.689580988805142E+08, -2.102495732768655E+08, -3.164754248154916E+07,
2461015.500000000, A.D. 2025-Dec-06 00:00:00.0000, 3.735939092526146E+08, -2.007900474083488E+08, -3.146581132584301E+07,
2461022.500000000, A.D. 2025-Dec-13 00:00:00.0000, 3.779939908714361E+08, -1.912038643727991E+08, -3.126422473978097E+07,
2461029.500000000, A.D. 2025-Dec-20 00:00:00.0000, 3.821546472195172E+08, -1.814966058874441E+08, -3.104283367049279E+07,
2461036.500000000, A.D. 2025-Dec-27 00:00:00.0000, 3.860722945887817E+08, -1.716739698764664E+08, -3.080170122787413E+07,
2461043.500000000, A.D. 2026-Jan-03 00:00:00.0000, 3.897434663816194E+08, -1.617417690017312E+08, -3.054090287306634E+07,
2461050.500000000, A.D. 2026-Jan-10 00:00:00.0000, 3.931648171261495E+08, -1.517059290732980E+08, -3.026052657392868E+07,
2461057.500000000, A.D. 2026-Jan-17 00:00:00.0000, 3.963331264359013E+08, -1.415724874244639E+08, -2.996067295583151E+07,
2461064.500000000, A.D. 2026-Jan-24 00:00:00.0000, 3.992453029892904E+08, -1.313475912219771E+08, -2.964145545253328E+07,
2461071.500000000, A.D. 2026-Jan-31 00:00:00.0000, 4.018983885492359E+08, -1.210374957126469E+08, -2.930300045932508E+07,
2461078.500000000, A.D. 2026-Feb-07 00:00:00.0000, 4.042895620798083E+08, -1.106485624581863E+08, -2.894544749811487E+07,
2461085.500000000, A.D. 2026-Feb-14 00:00:00.0000, 4.064161442054144E+08, -1.001872575677772E+08, -2.856894941809700E+07,
2461092.500000000, A.D. 2026-Feb-21 00:00:00.0000, 4.082756023904026E+08, -8.966014934308644E+07, -2.817367261934709E+07,
2461099.500000000, A.D. 2026-Feb-28 00:00:00.0000, 4.098655557472789E+08, -7.907390417222413E+07, -2.775979710455307E+07,
2461106.500000000, A.D. 2026-Mar-07 00:00:00.0000, 4.111837774113879E+08, -6.843528261487496E+07, -2.732751632879851E+07,
2461113.500000000, A.D. 2026-Mar-14 00:00:00.0000, 4.122281972523155E+08, -5.775113800512905E+07, -2.687703729215056E+07,
2461120.500000000, A.D. 2026-Mar-21 00:00:00.0000, 4.129969066986440E+08, -4.702841466727117E+07, -2.640858080112312E+07,
2461127.500000000, A.D. 2026-Mar-28 00:00:00.0000, 4.134881636616814E+08, -3.627414471057613E+07, -2.592238162996408E+07,
2461134.500000000, A.D. 2026-Apr-04 00:00:00.0000, 4.137003969482423E+08, -2.549544436502297E+07, -2.541868860452744E+07,
2461141.500000000, A.D. 2026-Apr-11 00:00:00.0000, 4.136322104280565E+08, -1.469951021415764E+07, -2.489776466234074E+07,
2461148.500000000, A.D. 2026-Apr-18 00:00:00.0000, 4.132823871055218E+08, -3.893615327586596E+06, -2.435988690300280E+07,
2461155.500000000, A.D. 2026-Apr-25 00:00:00.0000, 4.126498931316708E+08, 6.914894726082270E+06, -2.380534663086478E+07,
2461162.500000000, A.D. 2026-May-02 00:00:00.0000, 4.117338817770975E+08, 1.771860596054970E+07, -2.323444939420906E+07,
2461169.500000000, A.D. 2026-May-09 00:00:00.0000, 4.105336974803638E+08, 2.851004008469780E+07, -2.264751503682164E+07,
2461176.500000000, A.D. 2026-May-16 00:00:00.0000, 4.090488803381987E+08, 3.928165878779980E+07, -2.204487778443930E+07,
2461183.500000000, A.D. 2026-May-23 00:00:00.0000, 4.072791710751761E+08, 5.002586922258363E+07, -2.142688628626584E+07,
2461190.500000000, A.D. 2026-May-30 00:00:00.0000, 4.052245144026952E+08, 6.073503101072377E+07, -2.079390339374986E+07,
2461197.500000000, A.D. 2026-Jun-06 00:00:00.0000, 4.028850604419839E+08, 7.140146149904764E+07, -2.014630591447066E+07,
2461204.500000000, A.D. 2026-Jun-13 00:00:00.0000, 4.002611678642495E+08, 8.201743946408200E+07, -1.948448466068234E+07,
2461211.500000000, A.D. 2026-Jun-20 00:00:00.0000, 3.973534082311190E+08, 9.257521019134188E+07, -1.880884450676265E+07,
2461218.500000000, A.D. 2026-Jun-27 00:00:00.0000, 3.941625698230130E+08, 1.030669915900031E+08, -1.811980432695396E+07,
2461225.500000000, A.D. 2026-Jul-04 00:00:00.0000, 3.906896609419350E+08, 1.134849805672383E+08, -1.741779687623192E+07,
2461232.500000000, A.D. 2026-Jul-11 00:00:00.0000, 3.869359129286662E+08, 1.238213595283993E+08, -1.670326864792763E+07,
2461239.500000000, A.D. 2026-Jul-18 00:00:00.0000, 3.829027829726716E+08, 1.340683030260352E+08, -1.597667971406286E+07,
2461246.500000000, A.D. 2026-Jul-25 00:00:00.0000, 3.785919567245013E+08, 1.442179845569613E+08, -1.523850354995918E+07,
2461253.500000000, A.D. 2026-Aug-01 00:00:00.0000, 3.740053507442120E+08, 1.542625834550073E+08, -1.448922685100546E+07,
2461260.500000000, A.D. 2026-Aug-08 00:00:00.0000, 3.691451149865645E+08, 1.641942918381959E+08, -1.372934936381457E+07,
2461267.500000000, A.D. 2026-Aug-15 00:00:00.0000, 3.640136357232704E+08, 1.740053220530440E+08, -1.295938373272410E+07,
2461274.500000000, A.D. 2026-Aug-22 00:00:00.0000, 3.586135381229986E+08, 1.836879158283026E+08, -1.217985519153329E+07,
2461281.500000000, A.D. 2026-Aug-29 00:00:00.0000, 3.529476861833105E+08, 1.932343537598957E+08, -1.139130100188406E+07,
2461288.500000000, A.D. 2026-Sep-05 00:00:00.0000, 3.470191821379914E+08, 2.026369622518209E+08, -1.059427006807850E+07,
$$EOE